NORAD_CAT_ID,OBJECT_NAME,OBJECT_TYPE,EPOCH,MEAN_MOTION,ECCENTRICITY,INCLINATION,RA_OF_ASC_NODE,ARG_OF_PERICENTER,MEAN_ANOMALY,BSTAR,MEAN_MOTION_DOT,MEAN_MOTION_DDOT,TLE_LINE0,TLE_LINE1,TLE_LINE2,SEMIMAJOR_AXIS,PERIOD,APOGEE,PERIGEE,DECAYED
56489.0,STARLINK-5923,PAYLOAD,2023-12-19 10:25:10,14.98611836,0.0002673,69.9988,349.9434,260.3939,99.6918,-0.0045096,-0.0005388,0.0,0 STARLINK-5923,1 56489U 23064AT  23353.43414597 -.00053880  00000-0 -45096-2 0  9992,2 56489  69.9988 349.9434 0002673 260.3939  99.6918 14.98611836 34713,6949.321,96.089,573.044,569.329,0.0
56489.0,STARLINK-5923,PAYLOAD,2023-12-20 04:02:41,14.98352105,0.0002409,69.9989,348.0909,262.4687,97.6198,-0.000417,-5.068e-05,0.0,0 STARLINK-5923,1 56489U 23064AT  23354.16853090 -.00005068  00000-0 -41700-3 0  9992,2 56489  69.9989 348.0909 0002409 262.4687  97.6198 14.98352105 35182,6950.125,96.106,573.664,570.315,0.0
56489.0,STARLINK-5923,PAYLOAD,2023-12-20 14:00:01,14.9834708,0.0002906,70.0005,347.0439,274.5763,162.367,-0.0031438,-0.00037421,0.0,0 STARLINK-5923,1 56489U 23064AT  23354.58334491 -.00037421  00000-0 -31438-2 0  9991,2 56489  70.0005 347.0439 0002906 274.5763 162.3670 14.98347080 35240,6950.14,96.106,574.025,569.985,0.0
56489.0,STARLINK-5923,PAYLOAD,2023-12-20 22:00:00,14.98311308,0.0002914,70.0006,346.2034,267.6871,166.7468,0.00545,0.00065515,0.0,0 STARLINK-5923,1 56489U 23064AT  23354.91667824  .00065515  00000-0  54500-2 0  9995,2 56489  70.0006 346.2034 0002914 267.6871 166.7468 14.98311308  5878,6950.251,96.108,574.141,570.09,0.0
56489.0,STARLINK-5923,PAYLOAD,2023-12-21 04:04:41,14.98331744,0.0002692,69.9995,345.5665,264.8804,95.2048,3.7017e-05,3.49e-06,0.0,0 STARLINK-5923,1 56489U 23064AT  23355.16992949  .00000349  00000-0  37017-4 0  9992,2 56489  69.9995 345.5665 0002692 264.8804  95.2048 14.98331744 35332,6950.187,96.107,573.923,570.182,0.0
56489.0,STARLINK-5923,PAYLOAD,2023-12-21 08:53:05,14.98335611,0.0002731,69.9992,345.0603,268.3462,91.7384,8.0403e-05,8.67e-06,0.0,0 STARLINK-5923,1 56489U 23064AT  23355.37020539  .00000867  00000-0  80403-4 0  9994,2 56489  69.9992 345.0603 0002731 268.3462  91.7384 14.98335611 35004,6950.176,96.107,573.939,570.142,0.0
56489.0,STARLINK-5923,PAYLOAD,2023-12-22 04:06:43,14.98327646,0.0002594,69.9998,343.042,251.3636,108.7241,-2.6858e-05,-4.13e-06,0.0,0 STARLINK-5923,1 56489U 23064AT  23356.17133191 -.00000413  00000-0 -26858-4 0  9995,2 56489  69.9998 343.0420 0002594 251.3636 108.7241 14.98327646 35489,6950.2,96.107,573.868,570.262,0.0
56489.0,STARLINK-5923,PAYLOAD,2023-12-22 08:55:07,14.98327271,0.0002592,69.9999,342.5372,249.1714,110.9168,-4.4898e-05,-6.29e-06,0.0,0 STARLINK-5923,1 56489U 23064AT  23356.37161285 -.00000629  00000-0 -44898-4 0  9995,2 56489  69.9999 342.5372 0002592 249.1714 110.9168 14.98327271 35151,6950.201,96.107,573.868,570.265,0.0
56489.0,STARLINK-5923,PAYLOAD,2023-12-23 04:08:43,14.98330623,0.0002686,69.9998,340.5173,251.7659,108.3207,-4.5313e-05,-6.34e-06,0.0,0 STARLINK-5923,1 56489U 23064AT  23357.17273033 -.00000634  00000-0 -45313-4 0  9998,2 56489  69.9998 340.5173 0002686 251.7659 108.3207 14.98330623 35631,6950.191,96.107,573.923,570.189,0.0
56489.0,STARLINK-5923,PAYLOAD,2023-12-23 08:57:08,14.98331318,0.0002624,69.9995,340.0102,272.8828,87.2031,-2.0691e-05,-3.4e-06,0.0,0 STARLINK-5923,1 56489U 23064AT  23357.37301074 -.00000340  00000-0 -20691-4 0  9993,2 56489  69.9995 340.0102 0002624 272.8828  87.2031 14.98331318 35305,6950.189,96.107,573.878,570.23,0.0
56489.0,STARLINK-5923,PAYLOAD,2023-12-24 04:10:44,14.98329377,0.0002704,69.9999,337.9915,253.2945,106.7918,4.506e-05,4.45e-06,0.0,0 STARLINK-5923,1 56489U 23064AT  23358.17412827  .00000445  00000-0  45060-4 0  9992,2 56489  69.9999 337.9915 0002704 253.2945 106.7918 14.98329377 35783,6950.195,96.107,573.939,570.18,0.0
56489.0,STARLINK-5923,PAYLOAD,2023-12-24 08:59:08,14.98332352,0.0002667,69.9998,337.486,253.4644,106.6222,6.9381e-05,7.35e-06,0.0,0 STARLINK-5923,1 56489U 23064AT  23358.37440555  .00000735  00000-0  69381-4 0  9997,2 56489  69.9998 337.4860 0002667 253.4644 106.6222 14.98332352 35450,6950.186,96.107,573.904,570.197,0.0
56489.0,STARLINK-5923,PAYLOAD,2023-12-25 04:12:45,14.98332763,0.0002047,69.9999,335.4647,243.0199,117.0751,-3.6487e-05,-5.28e-06,0.0,0 STARLINK-5923,1 56489U 23064AT  23359.17552861 -.00000528  00000-0 -36487-4 0  9993,2 56489  69.9999 335.4647 0002047 243.0199 117.0751 14.98332763 35936,6950.184,96.107,573.472,570.627,0.0
56489.0,STARLINK-5923,PAYLOAD,2023-12-25 09:01:09,14.98352396,0.0002076,70.0003,334.9594,247.1587,112.9352,-0.0003579,-4.363e-05,0.0,0 STARLINK-5923,1 56489U 23064AT  23359.37580312 -.00004363  00000-0 -35790-3 0  9993,2 56489  70.0003 334.9594 0002076 247.1587 112.9352 14.98352396 35966,6950.124,96.106,573.431,570.546,0.0
56489.0,STARLINK-5923,PAYLOAD,2023-12-26 02:38:38,14.98329846,0.0002735,69.9991,333.1079,262.6139,97.4709,-2.7834e-05,-4.25e-06,0.0,0 STARLINK-5923,1 56489U 23064AT  23360.11016929 -.00000425  00000-0 -27834-4 0  9991,2 56489  69.9991 333.1079 0002735 262.6139  97.4709 14.98329846 36075,6950.193,96.107,573.959,570.157,0.0
56489.0,STARLINK-5923,PAYLOAD,2023-12-26 09:03:10,14.98329559,0.0002533,69.9998,332.4353,250.0416,110.047,-7.9424e-06,-1.88e-06,0.0,0 STARLINK-5923,1 56489U 23064AT  23360.37720903 -.00000188  00000-0 -79424-5 0  9992,2 56489  69.9998 332.4353 0002533 250.0416 110.0470 14.98329559 35756,6950.194,96.107,573.82,570.299,0.0
56489.0,STARLINK-5923,PAYLOAD,2023-12-27 02:40:39,14.98328714,0.0002614,69.9997,330.584,255.3342,104.7527,-2.5559e-05,-3.98e-06,0.0,0 STARLINK-5923,1 56489U 23064AT  23361.11157014 -.00000398  00000-0 -25559-4 0  9994,2 56489  69.9997 330.5840 0002614 255.3342 104.7527 14.98328714 36229,6950.197,96.107,573.879,570.245,0.0
56489.0,STARLINK-5923,PAYLOAD,2023-12-27 09:05:11,14.98329832,0.0002429,70.0001,329.9111,253.2197,106.8696,5.5014e-06,-2.7e-07,0.0,0 STARLINK-5923,1 56489U 23064AT  23361.37860909 -.00000027  00000-0  55014-5 0  9994,2 56489  70.0001 329.9111 0002429 253.2197 106.8696 14.98329832 35906,6950.193,96.107,573.747,570.37,0.0
56489.0,STARLINK-5923,PAYLOAD,2023-12-27 21:54:18,14.98299738,0.0001821,70.0005,328.5622,230.4244,129.6755,-0.00013942,-1.755e-05,0.0,0 STARLINK-5923,1 56489U 23064AT  23361.91271801 -.00001755  00000-0 -13942-3 0  9993,2 56489  70.0005 328.5622 0001821 230.4244 129.6755 14.98299738 35985,6950.286,96.109,573.417,570.886,0.0
56489.0,STARLINK-5923,PAYLOAD,2023-12-28 04:18:49,14.98324693,0.0002601,70.0005,327.8918,244.7436,115.3454,3.4405e-05,3.18e-06,0.0,0 STARLINK-5923,1 56489U 23064AT  23362.17974088  .00000318  00000-0  34405-4 0  9999,2 56489  70.0005 327.8918 0002601 244.7436 115.3454 14.98324693 36385,6950.209,96.107,573.882,570.267,0.0
56489.0,STARLINK-5923,PAYLOAD,2023-12-28 07:31:05,14.98326079,0.0002706,70.0,327.5548,248.9597,111.1273,3.9122e-05,3.74e-06,0.0,0 STARLINK-5923,1 56489U 23064AT  23362.31326026  .00000374  00000-0  39122-4 0  9991,2 56489  70.0000 327.5548 0002706 248.9597 111.1273 14.98326079 36042,6950.205,96.107,573.951,570.189,0.0
56489.0,STARLINK-5923,PAYLOAD,2023-12-29 02:44:41,14.98337801,0.0002956,69.9989,325.5314,274.4463,85.6358,0.00017823,2.035e-05,0.0,0 STARLINK-5923,1 56489U 23064AT  23363.11436752  .00002035  00000-0  17823-3 0  9997,2 56489  69.9989 325.5314 0002956 274.4463  85.6358 14.98337801 36524,6950.169,96.106,574.088,569.979,0.0
56489.0,STARLINK-5923,PAYLOAD,2023-12-29 07:33:04,14.98347174,0.0002906,69.9992,325.0291,259.09,100.9932,0.0002065,2.373e-05,0.0,0 STARLINK-5923,1 56489U 23064AT  23363.31463919  .00002373  00000-0  20650-3 0  9991,2 56489  69.9992 325.0291 0002906 259.0900 100.9932 14.98347174 36553,6950.14,96.106,574.024,569.985,0.0
56489.0,STARLINK-5923,PAYLOAD,2023-12-29 21:58:17,14.98351147,0.0002941,69.9992,323.5135,260.4523,99.6303,0.00016489,1.876e-05,0.0,0 STARLINK-5923,1 56489U 23064AT  23363.91547552  .00001876  00000-0  16489-3 0  9995,2 56489  69.9992 323.5135 0002941 260.4523  99.6303 14.98351147 36280,6950.127,96.106,574.037,569.948,0.0
56489.0,STARLINK-5923,PAYLOAD,2023-12-30 04:22:51,14.98324666,0.000288,69.9995,322.8407,261.9409,98.1423,-0.00013728,-1.73e-05,0.0,0 STARLINK-5923,1 56489U 23064AT  23364.18253862 -.00001730  00000-0 -13728-3 0  9997,2 56489  69.9995 322.8407 0002880 261.9409  98.1423 14.98324666 36685,6950.209,96.107,574.076,570.073,0.0
56489.0,STARLINK-5923,PAYLOAD,2023-12-30 07:35:07,14.98323231,0.0002728,70.0,322.5036,261.072,99.013,-0.00014077,-1.772e-05,0.0,0 STARLINK-5923,1 56489U 23064AT  23364.31605987 -.00001772  00000-0 -14077-3 0  9995,2 56489  70.0000 322.5036 0002728 261.0720  99.0130 14.98323231 36343,6950.214,96.107,573.975,570.183,0.0
56489.0,STARLINK-5923,PAYLOAD,2023-12-30 20:24:11,14.9833735,0.0003099,69.9987,321.1559,273.6143,86.4662,-0.00021931,-2.709e-05,0.0,0 STARLINK-5923,1 56489U 23064AT  23364.85013181 -.00002709  00000-0 -21931-3 0  9991,2 56489  69.9987 321.1559 0003099 273.6143  86.4662 14.98337350 36784,6950.17,96.107,574.189,569.881,0.0
56489.0,STARLINK-5923,PAYLOAD,2023-12-30 22:00:19,14.98337573,0.0003075,69.9989,320.9879,268.6742,91.4064,-0.00023111,-2.85e-05,0.0,0 STARLINK-5923,1 56489U 23064AT  23364.91689096 -.00002850  00000-0 -23111-3 0  9991,2 56489  69.9989 320.9879 0003075 268.6742  91.4064 14.98337573 36432,6950.169,96.107,574.172,569.897,0.0
56489.0,STARLINK-5923,PAYLOAD,2023-12-31 07:37:07,14.9834255,0.0002909,69.9994,319.9778,269.5568,90.5258,-0.00013182,-1.666e-05,0.0,0 STARLINK-5923,1 56489U 23064AT  23365.31744272 -.00001666  00000-0 -13182-3 0  9995,2 56489  69.9994 319.9778 0002909 269.5568  90.5258 14.98342550 36857,6950.154,96.106,574.041,569.997,0.0
56489.0,STARLINK-5923,PAYLOAD,2023-12-31 22:02:19,14.98338045,0.0002704,70.0002,318.4631,271.2228,88.8621,-0.00016483,-2.059e-05,0.0,0 STARLINK-5923,1 56489U 23064AT  23365.91828379 -.00002059  00000-0 -16483-3 0  9996,2 56489  70.0002 318.4631 0002704 271.2228  88.8621 14.98338045 36586,6950.168,96.106,573.912,570.154,0.0
